start=new Date('2022-02-22T00:00:00.000Z').valueOf();
sats=[{"EPHEMERIS_TYPE":"0","APOAPSIS":"548.496","DECAY_DATE":null,"NORAD_CAT_ID":"47728","BSTAR":"0.00053375000000","CLASSIFICATION_TYPE":"U","TLE_LINE1":"1 47728U 21017G   22052.55784840  .00007679  00000-0  53375-3 0  9996","SITE":"AFETR","ARG_OF_PERICENTER":"63.2010","OBJECT_TYPE":"PAYLOAD","REF_FRAME":"TEME","PERIAPSIS":"545.883","MEAN_MOTION_DDOT":"0.0000000000000","ECCENTRICITY":"0.00018860","GP_ID":"196572994","MEAN_ANOMALY":"296.9171","SEMIMAJOR_AXIS":"6925.324","OBJECT_ID":"2021-017G","TIME_SYSTEM":"UTC","LAUNCH_DATE":"2021-03-04","REV_AT_EPOCH":"5528","OBJECT_NAME":"STARLINK-2131","ELEMENT_SET_NO":"999","TLE_LINE2":"2 47728  53.0555 352.7306 0001886  63.2010 296.9171 15.06407885 55283","COUNTRY_CODE":"US","CENTER_NAME":"EARTH","INCLINATION":"53.0555","FILE":"3312023","MEAN_ELEMENT_THEORY":"SGP4","RA_OF_ASC_NODE":"352.7306","MEAN_MOTION_DOT":"0.00007679","PERIOD":"95.592","EPOCH":"2022-02-21T13:23:18.101760","MEAN_MOTION":"15.06407885","RCS_SIZE":"LARGE"},{"TLE_LINE2":"2 47729  53.0547 296.1825 0001396  74.7938 285.3205 15.06405565 56042","CENTER_NAME":"EARTH","COUNTRY_CODE":"US","RA_OF_ASC_NODE":"296.1825","MEAN_MOTION_DOT":"0.00004566","INCLINATION":"53.0547","FILE":"3312023","MEAN_ELEMENT_THEORY":"SGP4","EPOCH":"2022-02-21T21:34:54.027552","PERIOD":"95.592","MEAN_MOTION":"15.06405565","RCS_SIZE":"LARGE","SITE":"AFETR","TLE_LINE1":"1 47729U 21017H   22052.89923643  .00004566  00000-0  32519-3 0  9999","ARG_OF_PERICENTER":"74.7938","APOAPSIS":"548.163","EPHEMERIS_TYPE":"0","DECAY_DATE":null,"NORAD_CAT_ID":"47729","CLASSIFICATION_TYPE":"U","BSTAR":"0.00032519000000","MEAN_MOTION_DDOT":"0.0000000000000","ECCENTRICITY":"0.00013960","REF_FRAME":"TEME","OBJECT_TYPE":"PAYLOAD","PERIAPSIS":"546.230","GP_ID":"196573249","LAUNCH_DATE":"2021-03-04","REV_AT_EPOCH":"5604","OBJECT_NAME":"STARLINK-2132","ELEMENT_SET_NO":"999","MEAN_ANOMALY":"285.3205","SEMIMAJOR_AXIS":"6925.332","TIME_SYSTEM":"UTC","OBJECT_ID":"2021-017H"},{"MEAN_ANOMALY":"313.2530","OBJECT_ID":"2021-017J","TIME_SYSTEM":"UTC","SEMIMAJOR_AXIS":"6925.382","OBJECT_NAME":"STARLINK-2140","REV_AT_EPOCH":"5507","LAUNCH_DATE":"2021-03-04","ELEMENT_SET_NO":"999","GP_ID":"196571996","REF_FRAME":"TEME","OBJECT_TYPE":"PAYLOAD","PERIAPSIS":"545.780","MEAN_MOTION_DDOT":"0.0000000000000","ECCENTRICITY":"0.00021190","EPHEMERIS_TYPE":"0","APOAPSIS":"548.715","BSTAR":"0.00001816700000","CLASSIFICATION_TYPE":"U","DECAY_DATE":null,"NORAD_CAT_ID":"47730","SITE":"AFETR","TLE_LINE1":"1 47730U 21017J   22052.91122586 -.00000011  00000-0  18167-4 0  9997","ARG_OF_PERICENTER":"46.8636","RCS_SIZE":"LARGE","MEAN_MOTION":"15.06388955","PERIOD":"95.593","EPOCH":"2022-02-21T21:52:09.914304","FILE":"3312023","INCLINATION":"53.0557","MEAN_ELEMENT_THEORY":"SGP4","MEAN_MOTION_DOT":"-0.00000011","RA_OF_ASC_NODE":"6.1430","TLE_LINE2":"2 47730  53.0557   6.1430 0002119  46.8636 313.2530 15.06388955 55072","COUNTRY_CODE":"US","CENTER_NAME":"EARTH"},{"ECCENTRICITY":"0.00015670","MEAN_MOTION_DDOT":"0.0000000000000","PERIAPSIS":"546.145","OBJECT_TYPE":"PAYLOAD","REF_FRAME":"TEME","ARG_OF_PERICENTER":"55.5664","SITE":"AFETR","TLE_LINE1":"1 47731U 21017K   22052.85181081  .00001681  00000-0  13171-3 0  9998","NORAD_CAT_ID":"47731","DECAY_DATE":null,"BSTAR":"0.00013171000000","CLASSIFICATION_TYPE":"U","APOAPSIS":"548.315","EPHEMERIS_TYPE":"0","ELEMENT_SET_NO":"999","LAUNCH_DATE":"2021-03-04","OBJECT_NAME":"STARLINK-2141","REV_AT_EPOCH":"5514","SEMIMAJOR_AXIS":"6925.365","OBJECT_ID":"2021-017K","TIME_SYSTEM":"UTC","MEAN_ANOMALY":"304.5473","GP_ID":"196572245","RA_OF_ASC_NODE":"1.4123","MEAN_MOTION_DOT":"0.00001681","MEAN_ELEMENT_THEORY":"SGP4","INCLINATION":"53.0552","FILE":"3312023","CENTER_NAME":"EARTH","COUNTRY_CODE":"US","TLE_LINE2":"2 47731  53.0552   1.4123 0001567  55.5664 304.5473 15.06394543 55146","RCS_SIZE":"LARGE","EPOCH":"2022-02-21T20:26:36.453984","PERIOD":"95.592","MEAN_MOTION":"15.06394543"},{"GP_ID":"196572494","TIME_SYSTEM":"UTC","OBJECT_ID":"2021-017L","SEMIMAJOR_AXIS":"6925.343","MEAN_ANOMALY":"260.5822","ELEMENT_SET_NO":"999","OBJECT_NAME":"STARLINK-2142","REV_AT_EPOCH":"5634","LAUNCH_DATE":"2021-03-04","BSTAR":"-0.00001156200000","CLASSIFICATION_TYPE":"U","NORAD_CAT_ID":"47732","DECAY_DATE":null,"EPHEMERIS_TYPE":"0","APOAPSIS":"548.365","ARG_OF_PERICENTER":"99.5356","TLE_LINE1":"1 47732U 21017L   22052.93426022 -.00000454  00000-0 -11562-4 0  9997","SITE":"AFETR","PERIAPSIS":"546.050","OBJECT_TYPE":"PAYLOAD","REF_FRAME":"TEME","ECCENTRICITY":"0.00016710","MEAN_MOTION_DDOT":"0.0000000000000","MEAN_MOTION":"15.06401931","EPOCH":"2022-02-21T22:25:20.083008","PERIOD":"95.592","RCS_SIZE":"LARGE","COUNTRY_CODE":"US","CENTER_NAME":"EARTH","TLE_LINE2":"2 47732  53.0548 276.0222 0001671  99.5356 260.5822 15.06401931 56346","MEAN_ELEMENT_THEORY":"SGP4","FILE":"3312023","INCLINATION":"53.0548","MEAN_MOTION_DOT":"-0.00000454","RA_OF_ASC_NODE":"276.0222"},{"GP_ID":"196572749","TIME_SYSTEM":"UTC","OBJECT_ID":"2021-017M","SEMIMAJOR_AXIS":"6925.354","MEAN_ANOMALY":"304.7072","ELEMENT_SET_NO":"999","REV_AT_EPOCH":"5504","OBJECT_NAME":"STARLINK-2143","LAUNCH_DATE":"2021-03-04","BSTAR":"-0.00000924260000","CLASSIFICATION_TYPE":"U","NORAD_CAT_ID":"47733","DECAY_DATE":null,"EPHEMERIS_TYPE":"0","APOAPSIS":"548.705","ARG_OF_PERICENTER":"55.4119","TLE_LINE1":"1 47733U 21017M   22052.83983279 -.00000419  00000-0 -92426-5 0  9999","SITE":"AFETR","PERIAPSIS":"545.732","REF_FRAME":"TEME","OBJECT_TYPE":"PAYLOAD","ECCENTRICITY":"0.00021460","MEAN_MOTION_DDOT":"0.0000000000000","MEAN_MOTION":"15.06398331","EPOCH":"2022-02-21T20:09:21.553056","PERIOD":"95.592","RCS_SIZE":"LARGE","CENTER_NAME":"EARTH","COUNTRY_CODE":"US","TLE_LINE2":"2 47733  53.0529  11.4540 0002146  55.4119 304.7072 15.06398331 55049","MEAN_ELEMENT_THEORY":"SGP4","FILE":"3312023","INCLINATION":"53.0529","MEAN_MOTION_DOT":"-0.00000419","RA_OF_ASC_NODE":"11.4540"},{"EPOCH":"2022-02-21T20:37:12.662976","PERIOD":"95.592","MEAN_MOTION":"15.06404861","RCS_SIZE":"LARGE","TLE_LINE2":"2 47734  53.0554   1.3813 0002275  52.2086 307.9109 15.06404861 55154","COUNTRY_CODE":"US","CENTER_NAME":"EARTH","INCLINATION":"53.0554","FILE":"3312023","MEAN_ELEMENT_THEORY":"SGP4","RA_OF_ASC_NODE":"1.3813","MEAN_MOTION_DOT":"0.00000534","GP_ID":"196571496","MEAN_ANOMALY":"307.9109","SEMIMAJOR_AXIS":"6925.334","TIME_SYSTEM":"UTC","OBJECT_ID":"2021-017N","LAUNCH_DATE":"2021-03-04","REV_AT_EPOCH":"5515","OBJECT_NAME":"STARLINK-2144","ELEMENT_SET_NO":"999","EPHEMERIS_TYPE":"0","APOAPSIS":"548.774","DECAY_DATE":null,"NORAD_CAT_ID":"47734","CLASSIFICATION_TYPE":"U","BSTAR":"0.00005473500000","SITE":"AFETR","TLE_LINE1":"1 47734U 21017N   22052.85917434  .00000534  00000-0  54735-4 0  9998","ARG_OF_PERICENTER":"52.2086","OBJECT_TYPE":"PAYLOAD","REF_FRAME":"TEME","PERIAPSIS":"545.623","MEAN_MOTION_DDOT":"0.0000000000000","ECCENTRICITY":"0.00022750"},{"ECCENTRICITY":"0.00017710","MEAN_MOTION_DDOT":"0.0000000000000","PERIAPSIS":"546.006","OBJECT_TYPE":"PAYLOAD","REF_FRAME":"TEME","ARG_OF_PERICENTER":"65.7723","TLE_LINE1":"1 47735U 21017P   22052.92597484 -.00000309  00000-0 -18445-5 0  9997","SITE":"AFETR","DECAY_DATE":null,"NORAD_CAT_ID":"47735","BSTAR":"-0.00000184450000","CLASSIFICATION_TYPE":"U","EPHEMERIS_TYPE":"0","APOAPSIS":"548.459","ELEMENT_SET_NO":"999","LAUNCH_DATE":"2021-03-04","REV_AT_EPOCH":"5619","OBJECT_NAME":"STARLINK-2146","SEMIMAJOR_AXIS":"6925.368","TIME_SYSTEM":"UTC","OBJECT_ID":"2021-017P","MEAN_ANOMALY":"294.3450","GP_ID":"196571745","RA_OF_ASC_NODE":"286.0568","MEAN_MOTION_DOT":"-0.00000309","MEAN_ELEMENT_THEORY":"SGP4","INCLINATION":"53.0558","FILE":"3312023","CENTER_NAME":"EARTH","COUNTRY_CODE":"US","TLE_LINE2":"2 47735  53.0558 286.0568 0001771  65.7723 294.3450 15.06393744 56195","RCS_SIZE":"LARGE","PERIOD":"95.593","EPOCH":"2022-02-21T22:13:24.226176","MEAN_MOTION":"15.06393744"},{"FILE":"3312023","INCLINATION":"53.0562","MEAN_ELEMENT_THEORY":"SGP4","MEAN_MOTION_DOT":"-0.00002062","RA_OF_ASC_NODE":"351.2230","TLE_LINE2":"2 47736  53.0562 351.2230 0001939  54.6031 305.5139 15.06390334 55333","COUNTRY_CODE":"US","CENTER_NAME":"EARTH","RCS_SIZE":"LARGE","MEAN_MOTION":"15.06390334","EPOCH":"2022-02-21T21:26:18.928896","PERIOD":"95.593","REF_FRAME":"TEME","OBJECT_TYPE":"PAYLOAD","PERIAPSIS":"545.900","MEAN_MOTION_DDOT":"0.0000000000000","ECCENTRICITY":"0.00019390","EPHEMERIS_TYPE":"0","APOAPSIS":"548.586","CLASSIFICATION_TYPE":"U","BSTAR":"-0.00011960000000","NORAD_CAT_ID":"47736","DECAY_DATE":null,"SITE":"AFETR","TLE_LINE1":"1 47736U 21017Q   22052.89327464 -.00002062  00000-0 -11960-3 0  9994","ARG_OF_PERICENTER":"54.6031","MEAN_ANOMALY":"305.5139","OBJECT_ID":"2021-017Q","TIME_SYSTEM":"UTC","SEMIMAJOR_AXIS":"6925.378","REV_AT_EPOCH":"5533","OBJECT_NAME":"STARLINK-2147","LAUNCH_DATE":"2021-03-04","ELEMENT_SET_NO":"999","GP_ID":"196572995"},{"GP_ID":"196573250","ELEMENT_SET_NO":"999","REV_AT_EPOCH":"5625","OBJECT_NAME":"STARLINK-2148","LAUNCH_DATE":"2021-03-04","OBJECT_ID":"2021-017R","TIME_SYSTEM":"UTC","SEMIMAJOR_AXIS":"6900.931","MEAN_ANOMALY":"292.0050","ARG_OF_PERICENTER":"68.1120","TLE_LINE1":"1 47737U 21017R   22052.92598275  .00528081  00000-0  26711-1 0  9999","SITE":"AFETR","BSTAR":"0.02671100000000","CLASSIFICATION_TYPE":"U","NORAD_CAT_ID":"47737","DECAY_DATE":null,"APOAPSIS":"523.953","EPHEMERIS_TYPE":"0","ECCENTRICITY":"0.00016770","MEAN_MOTION_DDOT":"0.0000000000000","PERIAPSIS":"521.639","REF_FRAME":"TEME","OBJECT_TYPE":"PAYLOAD","MEAN_MOTION":"15.14402257","EPOCH":"2022-02-21T22:13:24.909600","PERIOD":"95.087","RCS_SIZE":"LARGE","CENTER_NAME":"EARTH","COUNTRY_CODE":"US","TLE_LINE2":"2 47737  53.0560 285.5442 0001677  68.1120 292.0050 15.14402257 56255","MEAN_MOTION_DOT":"0.00528081","RA_OF_ASC_NODE":"285.5442","MEAN_ELEMENT_THEORY":"SGP4","FILE":"3312023","INCLINATION":"53.0560"}];
